[{"OBJECT_NAME":"BANDWAGON-2 OBJECT Y","OBJECT_ID":"2024-247Y","EPOCH":"2026-03-09T10:19:16.593888","MEAN_MOTION":15.4203694,"ECCENTRICITY":0.00084513,"INCLINATION":44.9978,"RA_OF_ASC_NODE":95.1721,"ARG_OF_PERICENTER":2.035,"MEAN_ANOMALY":358.0572,"EPHEMERIS_TYPE":0,"CLASSIFICATION_TYPE":"U","NORAD_CAT_ID":62399,"ELEMENT_SET_NO":999,"REV_AT_EPOCH":6797,"BSTAR":0.00079019986,"MEAN_MOTION_DOT":0.00034304,"MEAN_MOTION_DDOT":0},{"OBJECT_NAME":"ARIANE 40+3 R\/B","OBJECT_ID":"1995-033D","EPOCH":"2026-03-09T22:16:15.098592","MEAN_MOTION":15.47222333,"ECCENTRICITY":0.00073585,"INCLINATION":98.2878,"RA_OF_ASC_NODE":273.1988,"ARG_OF_PERICENTER":36.2046,"MEAN_ANOMALY":323.9698,"EPHEMERIS_TYPE":0,"CLASSIFICATION_TYPE":"U","NORAD_CAT_ID":23608,"ELEMENT_SET_NO":999,"REV_AT_EPOCH":66682,"BSTAR":0.0008304958,"MEAN_MOTION_DOT":0.0004236,"MEAN_MOTION_DDOT":0}]
